{"fetched_at":"2026-06-14T08:17:21Z","count":15259,"tles":[{"name":"CSS (TIANHE)","line1":"1 48274U 21035A   26164.52163056  .00021370  00000+0  25354-3 0  9997","line2":"2 48274  41.4694 344.3068 0007878  46.9708 313.1790 15.60655045292595","category":"Other"},{"name":"KSM1-B","line1":"1 46914U 20081K   26164.23522461  .00009030  00000+0  36257-3 0  9996","line2":"2 46914  36.9011  92.8658 0006883 252.9998 106.9996 15.24458655311586","category":"Other"},{"name":"ICEYE-X6","line1":"1 46497U 20068M   26164.59992646  .00003743  00000+0  27197-3 0  9990","line2":"2 46497  98.0966 158.0994 0008523 100.6494 259.5691 15.04502906312698","category":"Other"},{"name":"GONETS-M 20","line1":"1 47227U 20091A   26164.62517463 -.00000020  00000+0 -21470-3 0  9997","line2":"2 47227  82.5037 304.6506 0021038 185.5726 174.5123 12.42893445250632","category":"Other"},{"name":"GRUS-1B","line1":"1 47934U 21022C   26164.63885539  .00001299  00000+0  11209-3 0  9996","line2":"2 47934  97.5420  47.9550 0015473 340.9480  19.1162 14.98881375285362","category":"Other"},{"name":"AII-BRAVO","line1":"1 48270U 21034C   26164.02803988  .00004799  00000+0  35674-3 0  9994","line2":"2 48270  97.5631 219.0321 0004483 279.0300  81.0418 15.03451559278997","category":"Other"},{"name":"TYVAK-0130","line1":"1 48606U 21041BF  26164.38135174  .00006317  00000+0  24397-3 0  9997","line2":"2 48606  52.9974  43.7606 0010545 150.2479 209.9121 15.27520779279806","category":"Other"},{"name":"GONETS-M 21","line1":"1 47228U 20091B   26164.67951647  .00000072  00000+0  44951-3 0  9993","line2":"2 47228  82.4962 303.3258 0014597 198.5420 161.5130 12.42886854250636","category":"Other"},{"name":"DEKART","line1":"1 46493U 20068H   26164.62683810  .00012477  00000+0  34372-3 0  9997","line2":"2 46493  97.8735 173.6419 0007130 302.3843  57.6709 15.37275701315227","category":"Other"},{"name":"TIANQI-6","line1":"1 46810U 20076D   26164.42856401  .00003520  00000+0  23093-3 0  9992","line2":"2 46810  34.9995  71.5306 0009501 140.7448 219.3952 15.07159135308015","category":"Other"},{"name":"NETSAT-2","line1":"1 46507U 20068X   26164.54018696  .00022485  00000+0  46446-3 0  9993","line2":"2 46507  97.8612 172.3690 0003899  37.7157 322.4364 15.45852892315174","category":"Other"},{"name":"NORBI","line1":"1 46494U 20068J   26164.60265273  .00022876  00000+0  43408-3 0  9999","line2":"2 46494  97.8620 180.2518 0004545 262.3228  97.7505 15.48315376315655","category":"Other"},{"name":"GONETS-M 22","line1":"1 47229U 20091C   26164.65263015  .00000019  00000+0  63641-4 0  9996","line2":"2 47229  82.5019 304.2396 0021973 180.9407 179.1635 12.42892759250580","category":"Other"},{"name":"KSM1-A","line1":"1 46912U 20081H   26164.23705030  .00009215  00000+0  35439-3 0  9995","line2":"2 46912  36.8959  85.6912 0004745 283.7282  76.2939 15.25900621308577","category":"Other"},{"name":"ARKTIKA-M 1","line1":"1 47719U 21016A   26160.51571443 -.00000149  00000+0  00000+0 0  9996","line2":"2 47719  63.2417  58.7595 7285674 269.8905  14.6803  2.00625436 38630","category":"Other"},{"name":"NETSAT-4","line1":"1 46504U 20068U   26164.49507425  .00018266  00000+0  40574-3 0  9995","line2":"2 46504  97.8598 172.4392 0004280 354.6023   5.5177 15.43750464315207","category":"Other"},{"name":"GONETS-M 19","line1":"1 46488U 20068C   26164.60664450  .00000072  00000+0  44426-3 0  9997","line2":"2 46488  82.4968 349.3002 0014374  56.7659 303.4796 12.42892164258801","category":"Other"},{"name":"TYVAK-182A","line1":"1 48271U 21034D   26164.60983015  .00004592  00000+0  31798-3 0  9993","line2":"2 48271  97.5730 223.5893 0005360   0.6670 359.4563 15.06139071279297","category":"Other"}]}