OBJECT_NAME,OBJECT_ID,EPOCH,MEAN_MOTION,ECCENTRICITY,INCLINATION,RA_OF_ASC_NODE,ARG_OF_PERICENTER,MEAN_ANOMALY,EPHEMERIS_TYPE,CLASSIFICATION_TYPE,NORAD_CAT_ID,ELEMENT_SET_NO,REV_AT_EPOCH,BSTAR,MEAN_MOTION_DOT,MEAN_MOTION_DDOT
GONETS-M 19,2020-068C,2026-06-13T14:33:34.084800,12.42892164,.00143742,82.4968,349.3002,56.7659,303.4796,0,U,46488,999,25880,.44425947E-3,.72E-6,0
DEKART,2020-068H,2026-06-13T15:02:38.811840,15.37275701,.000713,97.8735,173.6419,302.3843,57.6709,0,U,46493,999,31522,.3437216E-3,.12477E-3,0
NORBI,2020-068J,2026-06-13T14:27:49.195872,15.48315376,.0004545,97.8620,180.2518,262.3228,97.7505,0,U,46494,999,31565,.43407586E-3,.22876E-3,0
ICEYE-X6,2020-068M,2026-06-13T14:23:53.646144,15.04502906,.00085233,98.0966,158.0994,100.6494,259.5691,0,U,46497,999,31269,.27196941E-3,.3743E-4,0
NETSAT-4,2020-068U,2026-06-13T11:52:54.415200,15.43750464,.000428,97.8598,172.4392,354.6023,5.5177,0,U,46504,999,31520,.40574102E-3,.18266E-3,0
NETSAT-2,2020-068X,2026-06-13T12:57:52.153344,15.45852892,.00038991,97.8612,172.3690,37.7157,322.4364,0,U,46507,999,31517,.46446011E-3,.22485E-3,0
TIANQI-6,2020-076D,2026-06-13T10:17:07.930464,15.07159135,.00095011,34.9995,71.5306,140.7448,219.3952,0,U,46810,999,30801,.23093189E-3,.352E-4,0
KSM1-A,2020-081H,2026-06-13T05:41:21.145920,15.25900621,.0004745,36.8959,85.6912,283.7282,76.2939,0,U,46912,999,30857,.35439E-3,.9215E-4,0
KSM1-B,2020-081K,2026-06-13T05:38:43.406304,15.24458655,.0006883,36.9011,92.8658,252.9998,106.9996,0,U,46914,999,31158,.36257E-3,.903E-4,0
GONETS-M 20,2020-091A,2026-06-13T15:00:15.088032,12.42893445,.00210384,82.5037,304.6506,185.5726,174.5123,0,U,47227,999,25063,-.2147019E-3,-.2E-6,0
GONETS-M 21,2020-091B,2026-06-13T16:18:30.223008,12.42886854,.00145979,82.4962,303.3258,198.5420,161.5130,0,U,47228,999,25063,.44950572E-3,.72E-6,0
GONETS-M 22,2020-091C,2026-06-13T15:39:47.244960,12.42892759,.00219736,82.5019,304.2396,180.9407,179.1635,0,U,47229,999,25058,.63640683E-4,.19E-6,0
ARKTIKA-M 1,2021-016A,2026-06-09T12:22:37.726752,2.00625436,.7285674,63.2417,58.7595,269.8905,14.6803,0,U,47719,999,3863,0,-.149E-5,0
GRUS-1B,2021-022C,2026-06-13T15:19:57.105696,14.98881375,.00154739,97.5420,47.9550,340.9480,19.1162,0,U,47934,999,28536,.11209487E-3,.1299E-4,0
AII-BRAVO,2021-034C,2026-06-13T00:40:22.645632,15.03451559,.00044835,97.5631,219.0321,279.0300,81.0418,0,U,48270,999,27899,.35674044E-3,.4799E-4,0
TYVAK-182A,2021-034D,2026-06-13T14:38:09.324960,15.06139071,.00053608,97.5730,223.5893,0.6670,359.4563,0,U,48271,999,27929,.31797909E-3,.4592E-4,0
CSS (TIANHE),2021-035A,2026-06-13T12:31:08.880384,15.60655045,.00078789,41.4694,344.3068,46.9708,313.1790,0,U,48274,999,29259,.25354343E-3,.2137E-3,0
TYVAK-0130,2021-041BF,2026-06-13T09:09:08.790336,15.27520779,.00105458,52.9974,43.7606,150.2479,209.9121,0,U,48606,999,27980,.24396983E-3,.6317E-4,0
